CCSDS_OMM_VERS = 2.0
CREATION_DATE  = 
ORIGINATOR     = 

OBJECT_NAME    = COSMOS 2058
OBJECT_ID      = 1990-010A
CENTER_NAME    = EARTH
REF_FRAME      = TEME
TIME_SYSTEM    = UTC
MEAN_ELEMENT_THEORY = SGP/SGP4

EPOCH          = 2026-03-13T22:50:24.325152
MEAN_MOTION    = 15.11363268
ECCENTRICITY   = .00087051
INCLINATION    = 82.4666
RA_OF_ASC_NODE = 43.2278
ARG_OF_PERICENTER = 330.4336
MEAN_ANOMALY   = 29.6401

EPHEMERIS_TYPE = 0
CLASSIFICATION_TYPE = U
NORAD_CAT_ID   = 20465
ELEMENT_SET_NO = 999
REV_AT_EPOCH   = 94288
BSTAR          = .28022006E-3
MEAN_MOTION_DOT = .4757E-4
MEAN_MOTION_DDOT = 0

CCSDS_OMM_VERS = 2.0
CREATION_DATE  = 
ORIGINATOR     = 

OBJECT_NAME    = SL-14 R/B
OBJECT_ID      = 1990-010B
CENTER_NAME    = EARTH
REF_FRAME      = TEME
TIME_SYSTEM    = UTC
MEAN_ELEMENT_THEORY = SGP/SGP4

EPOCH          = 2026-03-13T22:27:52.724160
MEAN_MOTION    = 14.83573016
ECCENTRICITY   = .00183731
INCLINATION    = 82.4987
RA_OF_ASC_NODE = 263.3987
ARG_OF_PERICENTER = 287.2742
MEAN_ANOMALY   = 72.6462

EPHEMERIS_TYPE = 0
CLASSIFICATION_TYPE = U
NORAD_CAT_ID   = 20466
ELEMENT_SET_NO = 999
REV_AT_EPOCH   = 92911
BSTAR          = .59207648E-4
MEAN_MOTION_DOT = .512E-5
MEAN_MOTION_DDOT = 0

CCSDS_OMM_VERS = 2.0
CREATION_DATE  = 
ORIGINATOR     = 

OBJECT_NAME    = SL-14 R/B
OBJECT_ID      = 1990-018B
CENTER_NAME    = EARTH
REF_FRAME      = TEME
TIME_SYSTEM    = UTC
MEAN_ELEMENT_THEORY = SGP/SGP4

EPOCH          = 2026-03-13T21:22:14.050560
MEAN_MOTION    = 14.82150039
ECCENTRICITY   = .00176183
INCLINATION    = 82.5210
RA_OF_ASC_NODE = 219.1630
ARG_OF_PERICENTER = 79.3331
MEAN_ANOMALY   = 280.9866

EPHEMERIS_TYPE = 0
CLASSIFICATION_TYPE = U
NORAD_CAT_ID   = 20511
ELEMENT_SET_NO = 999
REV_AT_EPOCH   = 92320
BSTAR          = .71594791E-4
MEAN_MOTION_DOT = .595E-5
MEAN_MOTION_DDOT = 0

CCSDS_OMM_VERS = 2.0
CREATION_DATE  = 
ORIGINATOR     = 

OBJECT_NAME    = HST
OBJECT_ID      = 1990-037B
CENTER_NAME    = EARTH
REF_FRAME      = TEME
TIME_SYSTEM    = UTC
MEAN_ELEMENT_THEORY = SGP/SGP4

EPOCH          = 2026-03-13T22:08:59.435232
MEAN_MOTION    = 15.29556322
ECCENTRICITY   = .00017779
INCLINATION    = 28.4723
RA_OF_ASC_NODE = 11.1207
ARG_OF_PERICENTER = 167.7784
MEAN_ANOMALY   = 192.2855

EPHEMERIS_TYPE = 0
CLASSIFICATION_TYPE = U
NORAD_CAT_ID   = 20580
ELEMENT_SET_NO = 999
REV_AT_EPOCH   = 77396
BSTAR          = .2844574E-3
MEAN_MOTION_DOT = .862E-4
MEAN_MOTION_DDOT = 0

CCSDS_OMM_VERS = 2.0
CREATION_DATE  = 
ORIGINATOR     = 

OBJECT_NAME    = SL-16 R/B
OBJECT_ID      = 1990-046B
CENTER_NAME    = EARTH
REF_FRAME      = TEME
TIME_SYSTEM    = UTC
MEAN_ELEMENT_THEORY = SGP/SGP4

EPOCH          = 2026-03-13T22:31:43.844160
MEAN_MOTION    = 14.15011256
ECCENTRICITY   = .00161902
INCLINATION    = 70.9978
RA_OF_ASC_NODE = 288.9905
ARG_OF_PERICENTER = 293.9574
MEAN_ANOMALY   = 65.9853

EPHEMERIS_TYPE = 0
CLASSIFICATION_TYPE = U
NORAD_CAT_ID   = 20625
ELEMENT_SET_NO = 999
REV_AT_EPOCH   = 84899
BSTAR          = -.26331403E-4
MEAN_MOTION_DOT = -.99E-6
MEAN_MOTION_DDOT = 0

CCSDS_OMM_VERS = 2.0
CREATION_DATE  = 
ORIGINATOR     = 

OBJECT_NAME    = COSMOS 2084
OBJECT_ID      = 1990-055A
CENTER_NAME    = EARTH
REF_FRAME      = TEME
TIME_SYSTEM    = UTC
MEAN_ELEMENT_THEORY = SGP/SGP4

EPOCH          = 2026-03-13T23:20:19.250592
MEAN_MOTION    = 15.05678292
ECCENTRICITY   = .0016418
INCLINATION    = 62.7915
RA_OF_ASC_NODE = 320.9716
ARG_OF_PERICENTER = 191.1309
MEAN_ANOMALY   = 168.9431

EPHEMERIS_TYPE = 0
CLASSIFICATION_TYPE = U
NORAD_CAT_ID   = 20663
ELEMENT_SET_NO = 999
REV_AT_EPOCH   = 93696
BSTAR          = .19691956E-3
MEAN_MOTION_DOT = .2665E-4
MEAN_MOTION_DDOT = 0

CCSDS_OMM_VERS = 2.0
CREATION_DATE  = 
ORIGINATOR     = 

OBJECT_NAME    = SL-6 R/B(2)
OBJECT_ID      = 1990-055D
CENTER_NAME    = EARTH
REF_FRAME      = TEME
TIME_SYSTEM    = UTC
MEAN_ELEMENT_THEORY = SGP/SGP4

EPOCH          = 2026-03-13T21:28:00.064416
MEAN_MOTION    = 15.03617639
ECCENTRICITY   = .00254773
INCLINATION    = 62.7824
RA_OF_ASC_NODE = 239.5510
ARG_OF_PERICENTER = 348.0578
MEAN_ANOMALY   = 11.9914

EPHEMERIS_TYPE = 0
CLASSIFICATION_TYPE = U
NORAD_CAT_ID   = 20666
ELEMENT_SET_NO = 999
REV_AT_EPOCH   = 93882
BSTAR          = .19275298E-3
MEAN_MOTION_DOT = .2465E-4
MEAN_MOTION_DDOT = 0

CCSDS_OMM_VERS = 2.0
CREATION_DATE  = 
ORIGINATOR     = 

OBJECT_NAME    = SL-8 R/B
OBJECT_ID      = 1990-078B
CENTER_NAME    = EARTH
REF_FRAME      = TEME
TIME_SYSTEM    = UTC
MEAN_ELEMENT_THEORY = SGP/SGP4

EPOCH          = 2026-03-13T22:38:05.896320
MEAN_MOTION    = 14.89210490
ECCENTRICITY   = .03613144
INCLINATION    = 82.8999
RA_OF_ASC_NODE = 247.4844
ARG_OF_PERICENTER = 359.6974
MEAN_ANOMALY   = 0.3966

EPHEMERIS_TYPE = 0
CLASSIFICATION_TYPE = U
NORAD_CAT_ID   = 20775
ELEMENT_SET_NO = 999
REV_AT_EPOCH   = 80993
BSTAR          = .5126595E-3
MEAN_MOTION_DOT = .17388E-3
MEAN_MOTION_DDOT = 0

CCSDS_OMM_VERS = 2.0
CREATION_DATE  = 
ORIGINATOR     = 

OBJECT_NAME    = SL-8 R/B
OBJECT_ID      = 1991-006B
CENTER_NAME    = EARTH
REF_FRAME      = TEME
TIME_SYSTEM    = UTC
MEAN_ELEMENT_THEORY = SGP/SGP4

EPOCH          = 2026-03-13T07:53:10.970016
MEAN_MOTION    = 13.77494777
ECCENTRICITY   = .00228644
INCLINATION    = 82.9465
RA_OF_ASC_NODE = 167.3408
ARG_OF_PERICENTER = 28.4025
MEAN_ANOMALY   = 31.7202

EPHEMERIS_TYPE = 0
CLASSIFICATION_TYPE = U
NORAD_CAT_ID   = 21088
ELEMENT_SET_NO = 999
REV_AT_EPOCH   = 76457
BSTAR          = .55831595E-4
MEAN_MOTION_DOT = .71E-6
MEAN_MOTION_DDOT = 0

CCSDS_OMM_VERS = 2.0
CREATION_DATE  = 
ORIGINATOR     = 

OBJECT_NAME    = OKEAN-3
OBJECT_ID      = 1991-039A
CENTER_NAME    = EARTH
REF_FRAME      = TEME
TIME_SYSTEM    = UTC
MEAN_ELEMENT_THEORY = SGP/SGP4

EPOCH          = 2026-03-13T16:02:55.849344
MEAN_MOTION    = 15.04839137
ECCENTRICITY   = .00135939
INCLINATION    = 82.5200
RA_OF_ASC_NODE = 332.9891
ARG_OF_PERICENTER = 322.6481
MEAN_ANOMALY   = 37.3800

EPHEMERIS_TYPE = 0
CLASSIFICATION_TYPE = U
NORAD_CAT_ID   = 21397
ELEMENT_SET_NO = 999
REV_AT_EPOCH   = 86563
BSTAR          = .2858362E-3
MEAN_MOTION_DOT = .4072E-4
MEAN_MOTION_DDOT = 0

CCSDS_OMM_VERS = 2.0
CREATION_DATE  = 
ORIGINATOR     = 

OBJECT_NAME    = COSMOS 2151
OBJECT_ID      = 1991-042A
CENTER_NAME    = EARTH
REF_FRAME      = TEME
TIME_SYSTEM    = UTC
MEAN_ELEMENT_THEORY = SGP/SGP4

EPOCH          = 2026-03-13T22:51:24.067296
MEAN_MOTION    = 15.00123072
ECCENTRICITY   = .00137723
INCLINATION    = 82.4929
RA_OF_ASC_NODE = 79.5629
ARG_OF_PERICENTER = 50.6644
MEAN_ANOMALY   = 309.5798

EPHEMERIS_TYPE = 0
CLASSIFICATION_TYPE = U
NORAD_CAT_ID   = 21422
ELEMENT_SET_NO = 999
REV_AT_EPOCH   = 86383
BSTAR          = .21383556E-3
MEAN_MOTION_DOT = .2698E-4
MEAN_MOTION_DDOT = 0

CCSDS_OMM_VERS = 2.0
CREATION_DATE  = 
ORIGINATOR     = 

OBJECT_NAME    = SL-14 R/B
OBJECT_ID      = 1991-042B
CENTER_NAME    = EARTH
REF_FRAME      = TEME
TIME_SYSTEM    = UTC
MEAN_ELEMENT_THEORY = SGP/SGP4

EPOCH          = 2026-03-13T19:25:22.151424
MEAN_MOTION    = 14.81834487
ECCENTRICITY   = .00160207
INCLINATION    = 82.4932
RA_OF_ASC_NODE = 216.3193
ARG_OF_PERICENTER = 224.1030
MEAN_ANOMALY   = 135.8908

EPHEMERIS_TYPE = 0
CLASSIFICATION_TYPE = U
NORAD_CAT_ID   = 21423
ELEMENT_SET_NO = 999
REV_AT_EPOCH   = 85368
BSTAR          = .71305259E-4
MEAN_MOTION_DOT = .587E-5
MEAN_MOTION_DDOT = 0

